[{"OBJECT_NAME":"GOES 18","OBJECT_ID":"2022-021A","EPOCH":"2026-03-03T03:09:22.762944","MEAN_MOTION":1.00271419,"ECCENTRICITY":5.81e-5,"INCLINATION":0.0269,"RA_OF_ASC_NODE":75.318,"ARG_OF_PERICENTER":316.5209,"MEAN_ANOMALY":39.3881,"EPHEMERIS_TYPE":0,"CLASSIFICATION_TYPE":"U","NORAD_CAT_ID":51850,"ELEMENT_SET_NO":999,"REV_AT_EPOCH":552,"BSTAR":0,"MEAN_MOTION_DOT":8.1e-7,"MEAN_MOTION_DDOT":0},{"OBJECT_NAME":"ATLAS 5 CENTAUR DEB","OBJECT_ID":"2018-079GP","EPOCH":"2026-03-02T23:30:32.567040","MEAN_MOTION":1.72872904,"ECCENTRICITY":0.4575729,"INCLINATION":13.1588,"RA_OF_ASC_NODE":67.3215,"ARG_OF_PERICENTER":242.4247,"MEAN_ANOMALY":64.2527,"EPHEMERIS_TYPE":0,"CLASSIFICATION_TYPE":"U","NORAD_CAT_ID":52045,"ELEMENT_SET_NO":999,"REV_AT_EPOCH":2884,"BSTAR":0,"MEAN_MOTION_DOT":-1.24e-6,"MEAN_MOTION_DDOT":0},{"OBJECT_NAME":"MERIDIAN 10","OBJECT_ID":"2022-030A","EPOCH":"2026-03-01T19:15:05.150016","MEAN_MOTION":2.00609605,"ECCENTRICITY":0.67578221,"INCLINATION":62.6643,"RA_OF_ASC_NODE":152.2631,"ARG_OF_PERICENTER":272.9558,"MEAN_ANOMALY":17.8275,"EPHEMERIS_TYPE":0,"CLASSIFICATION_TYPE":"U","NORAD_CAT_ID":52145,"ELEMENT_SET_NO":999,"REV_AT_EPOCH":2888,"BSTAR":0,"MEAN_MOTION_DOT":2.43e-6,"MEAN_MOTION_DDOT":0},{"OBJECT_NAME":"FREGAT R/B","OBJECT_ID":"2022-030B","EPOCH":"2026-02-27T07:25:24.601728","MEAN_MOTION":2.00081982,"ECCENTRICITY":0.68380508,"INCLINATION":62.6531,"RA_OF_ASC_NODE":147.1094,"ARG_OF_PERICENTER":274.4825,"MEAN_ANOMALY":16.6448,"EPHEMERIS_TYPE":0,"CLASSIFICATION_TYPE":"U","NORAD_CAT_ID":52146,"ELEMENT_SET_NO":999,"REV_AT_EPOCH":2881,"BSTAR":0,"MEAN_MOTION_DOT":6.41e-6,"MEAN_MOTION_DDOT":0},{"OBJECT_NAME":"ZHONGXING-6D","OBJECT_ID":"2022-038A","EPOCH":"2026-03-02T04:59:31.981056","MEAN_MOTION":1.00269787,"ECCENTRICITY":0.00023841,"INCLINATION":0.051,"RA_OF_ASC_NODE":252.7095,"ARG_OF_PERICENTER":57.0765,"MEAN_ANOMALY":50.1555,"EPHEMERIS_TYPE":0,"CLASSIFICATION_TYPE":"U","NORAD_CAT_ID":52255,"ELEMENT_SET_NO":999,"REV_AT_EPOCH":1434,"BSTAR":0,"MEAN_MOTION_DOT":-3.71e-6,"MEAN_MOTION_DDOT":0},{"OBJECT_NAME":"NILESAT 301","OBJECT_ID":"2022-061A","EPOCH":"2026-03-03T01:23:38.866272","MEAN_MOTION":1.00272906,"ECCENTRICITY":0.0005603,"INCLINATION":0.0235,"RA_OF_ASC_NODE":330.1245,"ARG_OF_PERICENTER":17.8679,"MEAN_ANOMALY":186.7832,"EPHEMERIS_TYPE":0,"CLASSIFICATION_TYPE":"U","NORAD_CAT_ID":52817,"ELEMENT_SET_NO":999,"REV_AT_EPOCH":1367,"BSTAR":0,"MEAN_MOTION_DOT":0,"MEAN_MOTION_DDOT":0},{"OBJECT_NAME":"FALCON 9 R/B","OBJECT_ID":"2022-061B","EPOCH":"2026-03-03T02:17:24.565344","MEAN_MOTION":1.81951799,"ECCENTRICITY":0.7635468,"INCLINATION":18.7901,"RA_OF_ASC_NODE":3.29,"ARG_OF_PERICENTER":196.7001,"MEAN_ANOMALY":106.2323,"EPHEMERIS_TYPE":0,"CLASSIFICATION_TYPE":"U","NORAD_CAT_ID":52818,"ELEMENT_SET_NO":999,"REV_AT_EPOCH":2439,"BSTAR":0.0015819,"MEAN_MOTION_DOT":7.85e-6,"MEAN_MOTION_DDOT":0},{"OBJECT_NAME":"CMS-02 (GSAT 24)","OBJECT_ID":"2022-067A","EPOCH":"2026-03-03T00:46:46.576128","MEAN_MOTION":1.00272227,"ECCENTRICITY":0.0002823,"INCLINATION":0.0522,"RA_OF_ASC_NODE":258.9762,"ARG_OF_PERICENTER":34.456,"MEAN_ANOMALY":322.0693,"EPHEMERIS_TYPE":0,"CLASSIFICATION_TYPE":"U","NORAD_CAT_ID":52903,"ELEMENT_SET_NO":999,"REV_AT_EPOCH":1354,"BSTAR":0,"MEAN_MOTION_DOT":-1.81e-6,"MEAN_MOTION_DDOT":0},{"OBJECT_NAME":"MEASAT 3D","OBJECT_ID":"2022-067B","EPOCH":"2026-03-03T02:31:41.376864","MEAN_MOTION":1.00271484,"ECCENTRICITY":0.0003197,"INCLINATION":0.0623,"RA_OF_ASC_NODE":302.8806,"ARG_OF_PERICENTER":23.8184,"MEAN_ANOMALY":323.5805,"EPHEMERIS_TYPE":0,"CLASSIFICATION_TYPE":"U","NORAD_CAT_ID":52904,"ELEMENT_SET_NO":999,"REV_AT_EPOCH":1358,"BSTAR":0,"MEAN_MOTION_DOT":-2.57e-6,"MEAN_MOTION_DDOT":0},{"OBJECT_NAME":"SES-22","OBJECT_ID":"2022-071A","EPOCH":"2026-03-03T03:08:45.324096","MEAN_MOTION":1.00274571,"ECCENTRICITY":0.0001043,"INCLINATION":0.0184,"RA_OF_ASC_NODE":233.6766,"ARG_OF_PERICENTER":100.3289,"MEAN_ANOMALY":95.0807,"EPHEMERIS_TYPE":0,"CLASSIFICATION_TYPE":"U","NORAD_CAT_ID":52933,"ELEMENT_SET_NO":999,"REV_AT_EPOCH":645,"BSTAR":0,"MEAN_MOTION_DOT":8.9e-7,"MEAN_MOTION_DDOT":0},{"OBJECT_NAME":"WFOV (USA 332)","OBJECT_ID":"2022-073A","EPOCH":"2026-03-02T23:14:17.942208","MEAN_MOTION":1.00268634,"ECCENTRICITY":0.0001426,"INCLINATION":3.4383,"RA_OF_ASC_NODE":79.9015,"ARG_OF_PERICENTER":207.7366,"MEAN_ANOMALY":340.904,"EPHEMERIS_TYPE":0,"CLASSIFICATION_TYPE":"U","NORAD_CAT_ID":52940,"ELEMENT_SET_NO":999,"REV_AT_EPOCH":1330,"BSTAR":0,"MEAN_MOTION_DOT":-3.77e-6,"MEAN_MOTION_DDOT":0},{"OBJECT_NAME":"ATLAS 5 CENTAUR DEB","OBJECT_ID":"2018-079GX","EPOCH":"2026-03-01T17:37:04.945728","MEAN_MOTION":1.7141471,"ECCENTRICITY":0.45481856,"INCLINATION":12.6798,"RA_OF_ASC_NODE":76.914,"ARG_OF_PERICENTER":228.1902,"MEAN_ANOMALY":82.9612,"EPHEMERIS_TYPE":0,"CLASSIFICATION_TYPE":"U","NORAD_CAT_ID":52973,"ELEMENT_SET_NO":999,"REV_AT_EPOCH":2858,"BSTAR":0,"MEAN_MOTION_DOT":-1.16e-6,"MEAN_MOTION_DDOT":0},{"OBJECT_NAME":"TIANLIAN 2-03","OBJECT_ID":"2022-078A","EPOCH":"2026-03-03T02:08:36.089376","MEAN_MOTION":1.00272306,"ECCENTRICITY":0.0003349,"INCLINATION":0.4013,"RA_OF_ASC_NODE":72.9435,"ARG_OF_PERICENTER":251.7536,"MEAN_ANOMALY":238.8944,"EPHEMERIS_TYPE":0,"CLASSIFICATION_TYPE":"U","NORAD_CAT_ID":53100,"ELEMENT_SET_NO":999,"REV_AT_EPOCH":1348,"BSTAR":0,"MEAN_MOTION_DOT":5.6e-7,"MEAN_MOTION_DDOT":0},{"OBJECT_NAME":"SBIRS GEO-6 (USA 336)","OBJECT_ID":"2022-092A","EPOCH":"2026-03-02T23:20:02.391360","MEAN_MOTION":1.00271623,"ECCENTRICITY":0.0002309,"INCLINATION":3.44,"RA_OF_ASC_NODE":315.8133,"ARG_OF_PERICENTER":18.8909,"MEAN_ANOMALY":315.0232,"EPHEMERIS_TYPE":0,"CLASSIFICATION_TYPE":"U","NORAD_CAT_ID":53355,"ELEMENT_SET_NO":999,"REV_AT_EPOCH":1316,"BSTAR":0,"MEAN_MOTION_DOT":-3.09e-6,"MEAN_MOTION_DDOT":0},{"OBJECT_NAME":"EUTELSAT KONNECT VHTS","OBJECT_ID":"2022-110A","EPOCH":"2026-03-03T02:06:28.791936","MEAN_MOTION":1.0027062,"ECCENTRICITY":0.0002859,"INCLINATION":0.0587,"RA_OF_ASC_NODE":102.4713,"ARG_OF_PERICENTER":212.0633,"MEAN_ANOMALY":240.6113,"EPHEMERIS_TYPE":0,"CLASSIFICATION_TYPE":"U","NORAD_CAT_ID":53765,"ELEMENT_SET_NO":999,"REV_AT_EPOCH":577,"BSTAR":0,"MEAN_MOTION_DOT":1.0e-8,"MEAN_MOTION_DDOT":0},{"OBJECT_NAME":"ARIANE 5 R/B","OBJECT_ID":"2022-110B","EPOCH":"2026-03-02T16:58:48.014688","MEAN_MOTION":1.54417116,"ECCENTRICITY":0.7917859,"INCLINATION":4.5736,"RA_OF_ASC_NODE":235.5041,"ARG_OF_PERICENTER":15.584,"MEAN_ANOMALY":358.8114,"EPHEMERIS_TYPE":0,"CLASSIFICATION_TYPE":"U","NORAD_CAT_ID":53766,"ELEMENT_SET_NO":999,"REV_AT_EPOCH":998,"BSTAR":0.00030164,"MEAN_MOTION_DOT":1.605e-5,"MEAN_MOTION_DDOT":0},{"OBJECT_NAME":"ZHONGXING-1E","OBJECT_ID":"2022-112A","EPOCH":"2026-03-03T04:11:39.295968","MEAN_MOTION":1.00269693,"ECCENTRICITY":0.000346,"INCLINATION":0.0175,"RA_OF_ASC_NODE":118.7508,"ARG_OF_PERICENTER":183.2267,"MEAN_ANOMALY":3.2293,"EPHEMERIS_TYPE":0,"CLASSIFICATION_TYPE":"U","NORAD_CAT_ID":53813,"ELEMENT_SET_NO":999,"REV_AT_EPOCH":1278,"BSTAR":0,"MEAN_MOTION_DOT":-1.64e-6,"MEAN_MOTION_DDOT":0}]
