GOES 18                 
1 51850U 22021A   26062.13151346  .00000081  00000+0  00000+0 0  9993
2 51850   0.0269  75.3180 0000581 316.5209  39.3881  1.00271419  5521
ATLAS 5 CENTAUR DEB     
1 52045U 18079GP  26061.97954360 -.00000124  00000+0  00000+0 0  9995
2 52045  13.1588  67.3215 4575729 242.4247  64.2527  1.72872904 28840
MERIDIAN 10             
1 52145U 22030A   26060.80214294  .00000243  00000+0  00000+0 0  9995
2 52145  62.6643 152.2631 6757822 272.9558  17.8275  2.00609605 28885
FREGAT R/B              
1 52146U 22030B   26058.30931252  .00000641  00000+0  00000+0 0  9990
2 52146  62.6531 147.1094 6838050 274.4825  16.6448  2.00081982 28819
ZHONGXING-6D            
1 52255U 22038A   26061.20800904 -.00000371  00000+0  00000+0 0  9992
2 52255   0.0510 252.7095 0002384  57.0765  50.1555  1.00269787 14347
NILESAT 301             
1 52817U 22061A   26062.05808873  .00000000  00000+0  00000+0 0  9997
2 52817   0.0235 330.1245 0005603  17.8679 186.7832  1.00272906 13674
FALCON 9 R/B            
1 52818U 22061B   26062.09542321  .00000785  00000+0  15819-2 0  9992
2 52818  18.7901   3.2900 7635468 196.7001 106.2323  1.81951799 24394
CMS-02 (GSAT 24)        
1 52903U 22067A   26062.03248352 -.00000181  00000+0  00000+0 0  9998
2 52903   0.0522 258.9762 0002823  34.4560 322.0693  1.00272227 13547
MEASAT 3D               
1 52904U 22067B   26062.10534001 -.00000257  00000+0  00000+0 0  9990
2 52904   0.0623 302.8806 0003197  23.8184 323.5805  1.00271484 13586
SES-22                  
1 52933U 22071A   26062.13108014  .00000089  00000+0  00000+0 0  9993
2 52933   0.0184 233.6766 0001043 100.3289  95.0807  1.00274571  6452
WFOV (USA 332)          
1 52940U 22073A   26061.96826322 -.00000377  00000+0  00000+0 0  9993
2 52940   3.4383  79.9015 0001426 207.7366 340.9040  1.00268634 13305
ATLAS 5 CENTAUR DEB     
1 52973U 18079GX  26060.73408502 -.00000116  00000+0  00000+0 0  9991
2 52973  12.6798  76.9140 4548185 228.1902  82.9612  1.71414710 28584
TIANLIAN 2-03           
1 53100U 22078A   26062.08930659  .00000056  00000+0  00000+0 0  9993
2 53100   0.4013  72.9435 0003349 251.7536 238.8944  1.00272306 13482
SBIRS GEO-6 (USA 336)   
1 53355U 22092A   26061.97224990 -.00000309  00000+0  00000+0 0  9994
2 53355   3.4400 315.8133 0002309  18.8909 315.0232  1.00271623 13166
EUTELSAT KONNECT VHTS   
1 53765U 22110A   26062.08783324  .00000001  00000+0  00000+0 0  9992
2 53765   0.0587 102.4713 0002859 212.0633 240.6113  1.00270620  5771
ARIANE 5 R/B            
1 53766U 22110B   26061.70750017  .00001605  00000+0  30164-3 0  9993
2 53766   4.5736 235.5041 7917859  15.5840 358.8114  1.54417116  9989
ZHONGXING-1E            
1 53813U 22112A   26062.17476037 -.00000164  00000+0  00000+0 0  9999
2 53813   0.0175 118.7508 0003460 183.2267   3.2293  1.00269693 12780
